[{"OBJECT_NAME":"SAUDISAT 5A","OBJECT_ID":"2018-102A","EPOCH":"2026-03-09T23:40:00.596928","MEAN_MOTION":15.26941021,"ECCENTRICITY":0.00113651,"INCLINATION":97.3185,"RA_OF_ASC_NODE":132.4981,"ARG_OF_PERICENTER":121.7113,"MEAN_ANOMALY":238.5235,"EPHEMERIS_TYPE":0,"CLASSIFICATION_TYPE":"U","NORAD_CAT_ID":43831,"ELEMENT_SET_NO":999,"REV_AT_EPOCH":40053,"BSTAR":0.00030305233,"MEAN_MOTION_DOT":7.96e-5,"MEAN_MOTION_DDOT":0},{"OBJECT_NAME":"STARLINK-31562","OBJECT_ID":"2024-057W","EPOCH":"2026-03-09T09:54:20.456928","MEAN_MOTION":15.27579476,"ECCENTRICITY":8.827e-5,"INCLINATION":43.0007,"RA_OF_ASC_NODE":203.6196,"ARG_OF_PERICENTER":223.3898,"MEAN_ANOMALY":136.6884,"EPHEMERIS_TYPE":0,"CLASSIFICATION_TYPE":"U","NORAD_CAT_ID":59340,"ELEMENT_SET_NO":999,"REV_AT_EPOCH":10962,"BSTAR":-3.1737791e-5,"MEAN_MOTION_DOT":-1.135e-5,"MEAN_MOTION_DDOT":0}]
